FENGYUN 1C DEB          
1 31383U 99025BSP 17345.50878015  .00000446  00000-0  31693-3 0  9996
2 31383  99.2708 342.0914 0118774  77.7199  52.2356 13.99556544544250
